ONEWEB-0683             
1 56719U 23068K   25065.30284300  .00000103  00000+0  24034-3 0  9994
2 56719  87.9137 352.3751 0001585  71.9462 288.1841 13.15549071 87901
ONEWEB-0684             
1 56720U 23068L   25065.53894716  .00000100  00000+0  23076-3 0  9991
2 56720  87.9112 352.3723 0003236  69.0189 291.1287 13.15549545 88460
ONEWEB-0686             
1 56721U 23068M   25065.25440160  .00000071  00000+0  15102-3 0  9999
2 56721  87.9103 322.0838 0001745  68.4371 291.6945 13.16595330 90149
ONEWEB-0694             
1 56722U 23068N   25065.67714254  .00000008  00000+0 -13699-4 0  9995
2 56722  87.9098 321.9185 0001332  70.5295 289.5980 13.16594461 90955
ONEWEB-0696             
1 56723U 23068P   25065.34403615  .00000111  00000+0  25971-3 0  9995
2 56723  87.9139 352.4189 0002124  80.0987 280.0383 13.15551026 87856
ONEWEB-0703             
1 56724U 23068Q   25065.35355376 -.00000028  00000+0 -10770-3 0  9997
2 56724  87.9123 352.4321 0002800  95.0988 265.0462 13.15549103 87748
ONEWEB-0721             
1 56725U 23068R   25065.55922591  .00000096  00000+0  19487-3 0  9996
2 56725  86.6751 234.5208 0001567  98.7679 261.3631 13.22426585 96138
ONEWEB-0015             
1 61594U 24188A   25065.58334491  .00000016  00000+0  00000+0 0  9998
2 61594  87.3098 115.3574 0007830 102.9790  92.7764 13.80609088 21139
